CSS (TIANHE)            
1 48274U 21035A   24243.21722583  .00053229  00000+0  58461-3 0  9998
2 48274  41.4698 351.9609 0002570 326.4463  33.6214 15.62333171190678
